STARLINK-1557_new
1 16034C 20055H   21326.15468759 -.00015965  00000-0 -10698-2 0  3266
2 16034  53.0547 328.0580 0001421  61.6434 235.0110 15.06409796    11
STARLINK-1557_old
1 26034C 20055H   21325.17897534 -.00000246  00000-0 -16503-4 0  3252
2 26034  53.0545 332.4383 0001473  63.0158 339.3531 15.06405986    17
